SORCE                   
1 27651U 03004A   26068.43340162  .00003920  00000+0  29573-3 0  9995
2 27651  39.9899 110.5611 0015930  53.0009 307.2241 15.03094555256885
STARLINK-3677           
1 51970U 22025Q   26068.29984043 -.00000007  00000+0  18441-4 0  9993
2 51970  53.0566  32.6524 0001537  85.1631 274.9533 15.06401696220860
