[{"OBJECT_NAME":"SORCE","OBJECT_ID":"2003-004A","EPOCH":"2026-03-09T10:24:05.899968","MEAN_MOTION":15.03094555,"ECCENTRICITY":0.00159303,"INCLINATION":39.9899,"RA_OF_ASC_NODE":110.5611,"ARG_OF_PERICENTER":53.0009,"MEAN_ANOMALY":307.2241,"EPHEMERIS_TYPE":0,"CLASSIFICATION_TYPE":"U","NORAD_CAT_ID":27651,"ELEMENT_SET_NO":999,"REV_AT_EPOCH":25688,"BSTAR":0.00029572763,"MEAN_MOTION_DOT":3.92e-5,"MEAN_MOTION_DDOT":0},{"OBJECT_NAME":"STARLINK-3677","OBJECT_ID":"2022-025Q","EPOCH":"2026-03-09T07:11:46.213152","MEAN_MOTION":15.06401696,"ECCENTRICITY":0.00015376,"INCLINATION":53.0566,"RA_OF_ASC_NODE":32.6524,"ARG_OF_PERICENTER":85.1631,"MEAN_ANOMALY":274.9533,"EPHEMERIS_TYPE":0,"CLASSIFICATION_TYPE":"U","NORAD_CAT_ID":51970,"ELEMENT_SET_NO":999,"REV_AT_EPOCH":22086,"BSTAR":1.844148e-5,"MEAN_MOTION_DOT":-7.0e-8,"MEAN_MOTION_DDOT":0}]
